{
  "type": "FeatureCollection",
  "features": [
    {
      "type": "Feature",
      "id": "nwe_direct",
      "properties": {
        "id": "nwe_direct",
        "label": "Sabine Pass to Gate, direct",
        "distance_nm": 4979.2
      },
      "geometry": {
        "type": "LineString",
        "coordinates": [
          [
            -93.8885,
            29.7558
          ],
          [
            -93.8363,
            29.6879
          ],
          [
            -93.8045,
            29.5986
          ],
          [
            -93.7265,
            29.5326
          ],
          [
            -93.6681,
            29.4739
          ],
          [
            -93.668124,
            29.453174
          ],
          [
            -93.217182,
            29.253671
          ],
          [
            -92.407265,
            28.895353
          ],
          [
            -92.151777,
            28.782322
          ],
          [
            -91.842882,
            28.645662
          ],
          [
            -91.549269,
            28.515764
          ],
          [
            -91.308884,
            28.409415
          ],
          [
            -90.380776,
            27.998808
          ],
          [
            -89.893027,
            27.783021
          ],
          [
            -89.766422,
            27.727009
          ],
          [
            -88.638654,
            27.22807
          ],
          [
            -88.194005,
            27.029745
          ],
          [
            -87.365118,
            26.617905
          ],
          [
            -86.86025,
            26.367057
          ],
          [
            -86.685611,
            26.280286
          ],
          [
            -85.868843,
            25.874468
          ],
          [
            -84.431568,
            25.160345
          ],
          [
            -82.7,
            24.3
          ],
          [
            -81.825,
            24.2187
          ],
          [
            -80.8143,
            24.504
          ],
          [
            -80.797078,
            24.513328
          ],
          [
            -80.3533,
            24.7537
          ],
          [
            -80.029414,
            25.114792
          ],
          [
            -80.0286,
            25.1157
          ],
          [
            -79.9482,
            25.3329
          ],
          [
            -79.815,
            25.7903
          ],
          [
            -79.5356,
            26.0942
          ],
          [
            -79.3328,
            26.7372
          ],
          [
            -79.3211,
            27.4491
          ],
          [
            -78.173844,
            27.458225
          ],
          [
            -77.099645,
            27.723433
          ],
          [
            -77.010956,
            27.797678
          ],
          [
            -76.304169,
            28.389357
          ],
          [
            -75.640718,
            28.936853
          ],
          [
            -74.724316,
            29.647627
          ],
          [
            -74.599389,
            29.744522
          ],
          [
            -74.176384,
            30.07261
          ],
          [
            -73.978383,
            30.226183
          ],
          [
            -73.860704,
            30.317457
          ],
          [
            -73.069762,
            30.930923
          ],
          [
            -73.024825,
            30.965776
          ],
          [
            -72.69332,
            31.222897
          ],
          [
            -72.495855,
            31.370067
          ],
          [
            -72.495831,
            31.370084
          ],
          [
            -72.306161,
            31.505173
          ],
          [
            -71.736244,
            31.911086
          ],
          [
            -71.494758,
            32.083079
          ],
          [
            -71.121104,
            32.349208
          ],
          [
            -71.022856,
            32.419183
          ],
          [
            -70.214581,
            32.994862
          ],
          [
            -69.841727,
            33.260421
          ],
          [
            -69.424515,
            33.557573
          ],
          [
            -69.087845,
            33.787235
          ],
          [
            -68.415982,
            34.222444
          ],
          [
            -67.957084,
            34.519702
          ],
          [
            -67.613187,
            34.742467
          ],
          [
            -67.057094,
            35.102685
          ],
          [
            -66.514606,
            35.45409
          ],
          [
            -65.7143,
            35.9725
          ],
          [
            -61.9797,
            38.1497
          ],
          [
            -60.823113,
            38.749556
          ],
          [
            -60.000346,
            39.176278
          ],
          [
            -59.428691,
            39.472763
          ],
          [
            -58.343989,
            40.035336
          ],
          [
            -58.0238,
            40.2014
          ],
          [
            -53.8316,
            42.1102
          ],
          [
            -52.59634,
            42.59634
          ],
          [
            -52.53975,
            42.618612
          ],
          [
            -50.002169,
            43.617284
          ],
          [
            -49.3923,
            43.8573
          ],
          [
            -45.319011,
            45.21651
          ],
          [
            -45.015812,
            45.317684
          ],
          [
            -40.001969,
            46.719771
          ],
          [
            -37.184144,
            47.354689
          ],
          [
            -34.5883,
            47.9273
          ],
          [
            -31.783064,
            48.396456
          ],
          [
            -30.000784,
            48.69453
          ],
          [
            -28.801592,
            48.874132
          ],
          [
            -28.318152,
            48.930101
          ],
          [
            -23.6625,
            49.4691
          ],
          [
            -20.348228,
            49.686831
          ],
          [
            -20.000174,
            49.709697
          ],
          [
            -19.742404,
            49.726631
          ],
          [
            -19.57938,
            49.737341
          ],
          [
            -18.158595,
            49.83068
          ],
          [
            -15.355327,
            49.884617
          ],
          [
            -12.051344,
            49.927561
          ],
          [
            -10.690172,
            49.88336
          ],
          [
            -6.697411,
            49.753705
          ],
          [
            -6.5833,
            49.75
          ],
          [
            -5.979701,
            49.782237
          ],
          [
            -5.740436,
            49.795016
          ],
          [
            -5.630965,
            49.800862
          ],
          [
            -5.491611,
            49.808305
          ],
          [
            -4.868405,
            49.841589
          ],
          [
            -4.088283,
            49.883253
          ],
          [
            -2.93586,
            49.944802
          ],
          [
            -2.624015,
            50.023556
          ],
          [
            -2.270882,
            50.112738
          ],
          [
            -2.100162,
            50.138244
          ],
          [
            -1.755087,
            50.189798
          ],
          [
            -1.577583,
            50.216317
          ],
          [
            -1.251907,
            50.264973
          ],
          [
            -0.76446,
            50.337798
          ],
          [
            -0.764313,
            50.33751
          ],
          [
            -0.672505,
            50.358079
          ],
          [
            -0.505582,
            50.395477
          ],
          [
            0.301537,
            50.576304
          ],
          [
            1.149895,
            50.76637
          ],
          [
            1.3,
            50.8
          ],
          [
            1.441366,
            50.849032
          ],
          [
            1.567687,
            50.892845
          ],
          [
            1.813195,
            50.988387
          ],
          [
            2.1,
            51.1
          ],
          [
            2.356699,
            51.178984
          ],
          [
            3.4,
            51.5
          ],
          [
            3.559619,
            51.659619
          ],
          [
            3.9,
            52
          ],
          [
            4.069748,
            51.987629
          ]
        ]
      }
    },
    {
      "type": "Feature",
      "id": "nea_panama",
      "properties": {
        "id": "nea_panama",
        "label": "Sabine Pass to Futtsu, via Panama",
        "distance_nm": 9305.9
      },
      "geometry": {
        "type": "LineString",
        "coordinates": [
          [
            -93.8885,
            29.7558
          ],
          [
            -93.8363,
            29.6879
          ],
          [
            -93.8045,
            29.5986
          ],
          [
            -93.7265,
            29.5326
          ],
          [
            -93.6681,
            29.4739
          ],
          [
            -93.668124,
            29.453174
          ],
          [
            -93.217182,
            29.253671
          ],
          [
            -93.214,
            29.13
          ],
          [
            -92.472207,
            28.476324
          ],
          [
            -91.814891,
            27.89709
          ],
          [
            -91.600783,
            27.708416
          ],
          [
            -90.48317,
            26.723562
          ],
          [
            -89.8711,
            26.1842
          ],
          [
            -89.462115,
            25.707806
          ],
          [
            -87.111733,
            22.97003
          ],
          [
            -86.890685,
            22.712548
          ],
          [
            -86.417168,
            22.160986
          ],
          [
            -86.11065,
            21.856981
          ],
          [
            -85.9021,
            21.64977
          ],
          [
            -85.599913,
            20.933101
          ],
          [
            -82.8698,
            16.0793
          ],
          [
            -82.166049,
            14.527189
          ],
          [
            -81.30559,
            12.639853
          ],
          [
            -80,
            9.75
          ],
          [
            -79.900612,
            9.208176
          ],
          [
            -79.821304,
            9.173012
          ],
          [
            -79.803246,
            9.118307
          ],
          [
            -79.741379,
            9.118236
          ],
          [
            -79.689331,
            9.10639
          ],
          [
            -79.641747,
            9.035982
          ],
          [
            -79.585922,
            8.992656
          ],
          [
            -79.494118,
            8.796576
          ],
          [
            -79.5,
            8.6
          ],
          [
            -79.672852,
            7.422389
          ],
          [
            -80.227822,
            6.983728
          ],
          [
            -81.4,
            6.9
          ],
          [
            -82.8,
            7.4167
          ],
          [
            -87.997356,
            10.035818
          ],
          [
            -89.110835,
            10.580401
          ],
          [
            -90.991341,
            11.48884
          ],
          [
            -99.913376,
            15.63055
          ],
          [
            -105.5,
            18
          ],
          [
            -107.20629,
            19.341106
          ],
          [
            -108.2357,
            20.1502
          ],
          [
            -109.832589,
            21.395093
          ],
          [
            -111.0067,
            22.3104
          ],
          [
            -113.4508,
            24.926
          ],
          [
            -116.130461,
            27.989265
          ],
          [
            -117.491362,
            28.696433
          ],
          [
            -120,
            30
          ],
          [
            -123.545381,
            32.111344
          ],
          [
            -124.312422,
            32.568132
          ],
          [
            -124.5844,
            32.7301
          ],
          [
            -125.79442,
            33.38234
          ],
          [
            -126.656962,
            33.847279
          ],
          [
            -129.251724,
            35.24594
          ],
          [
            -129.4201,
            35.3367
          ],
          [
            -129.819272,
            35.526409
          ],
          [
            -130.001843,
            35.613177
          ],
          [
            -133.138317,
            37.103806
          ],
          [
            -134.5487,
            37.7741
          ],
          [
            -135.766993,
            38.271559
          ],
          [
            -137.863399,
            39.127573
          ],
          [
            -140,
            40
          ],
          [
            -145.447627,
            42.072031
          ],
          [
            -147.515898,
            42.782108
          ],
          [
            -150.00218,
            43.635695
          ],
          [
            -152.3988,
            44.4585
          ],
          [
            -154.286537,
            44.8774
          ],
          [
            -154.650707,
            44.958211
          ],
          [
            -155.417116,
            45.128282
          ],
          [
            -158.683,
            45.853
          ],
          [
            -160.002379,
            46.036662
          ],
          [
            -161.568165,
            46.254624
          ],
          [
            -163.816643,
            46.567619
          ],
          [
            -167.337728,
            47.057765
          ],
          [
            -171.990541,
            48.036744
          ],
          [
            -177.342032,
            49.360999
          ],
          [
            -180,
            50
          ],
          [
            -180,
            50
          ],
          [
            -195.816761,
            44.859607
          ],
          [
            -210,
            40
          ],
          [
            -214.4708,
            38.0301
          ],
          [
            -218.977918,
            35.682829
          ],
          [
            -219.523315,
            35.086203
          ],
          [
            -220.1,
            34.8
          ],
          [
            -220.36377,
            35.016501
          ],
          [
            -220.207214,
            35.23889
          ]
        ]
      }
    },
    {
      "type": "Feature",
      "id": "nea_suez",
      "properties": {
        "id": "nea_suez",
        "label": "Sabine Pass to Futtsu, via Suez",
        "distance_nm": 14624.2
      },
      "geometry": {
        "type": "LineString",
        "coordinates": [
          [
            -93.8885,
            29.7558
          ],
          [
            -93.8363,
            29.6879
          ],
          [
            -93.8045,
            29.5986
          ],
          [
            -93.7265,
            29.5326
          ],
          [
            -93.6681,
            29.4739
          ],
          [
            -93.668124,
            29.453174
          ],
          [
            -93.217182,
            29.253671
          ],
          [
            -92.407265,
            28.895353
          ],
          [
            -92.151777,
            28.782322
          ],
          [
            -91.842882,
            28.645662
          ],
          [
            -91.549269,
            28.515764
          ],
          [
            -91.308884,
            28.409415
          ],
          [
            -90.380776,
            27.998808
          ],
          [
            -89.893027,
            27.783021
          ],
          [
            -89.766422,
            27.727009
          ],
          [
            -88.638654,
            27.22807
          ],
          [
            -88.194005,
            27.029745
          ],
          [
            -87.365118,
            26.617905
          ],
          [
            -86.86025,
            26.367057
          ],
          [
            -86.685611,
            26.280286
          ],
          [
            -85.868843,
            25.874468
          ],
          [
            -84.431568,
            25.160345
          ],
          [
            -82.7,
            24.3
          ],
          [
            -81.825,
            24.2187
          ],
          [
            -80.8143,
            24.504
          ],
          [
            -80.797078,
            24.513328
          ],
          [
            -80.3533,
            24.7537
          ],
          [
            -80.029414,
            25.114792
          ],
          [
            -79.646288,
            25.212468
          ],
          [
            -78.92128,
            25.397091
          ],
          [
            -77.903071,
            25.334542
          ],
          [
            -77.371216,
            25.314236
          ],
          [
            -77.240095,
            25.623716
          ],
          [
            -77.178955,
            25.770214
          ],
          [
            -76.61827,
            25.946026
          ],
          [
            -76.300128,
            26.002864
          ],
          [
            -76.327093,
            26.067607
          ],
          [
            -75.657688,
            26.346963
          ],
          [
            -75.405913,
            26.452033
          ],
          [
            -74.352383,
            26.891691
          ],
          [
            -74.057221,
            27.014868
          ],
          [
            -73.87461,
            27.091075
          ],
          [
            -73.832064,
            27.108831
          ],
          [
            -73.299744,
            27.330978
          ],
          [
            -73.090234,
            27.41841
          ],
          [
            -72.818299,
            27.531894
          ],
          [
            -72.164258,
            27.804838
          ],
          [
            -70.685156,
            28.422096
          ],
          [
            -70.007418,
            28.704929
          ],
          [
            -69.862361,
            28.765464
          ],
          [
            -69.051387,
            29.103898
          ],
          [
            -69.0025,
            29.1243
          ],
          [
            -68.396402,
            29.303401
          ],
          [
            -67.347424,
            29.613372
          ],
          [
            -65.771462,
            30.079066
          ],
          [
            -64.892149,
            30.338901
          ],
          [
            -62.303605,
            31.103811
          ],
          [
            -62.024698,
            31.186227
          ],
          [
            -60.000749,
            31.784301
          ],
          [
            -57.833543,
            32.424706
          ],
          [
            -57.7916,
            32.4371
          ],
          [
            -57.742406,
            32.454415
          ],
          [
            -53.598858,
            33.912816
          ],
          [
            -51.5223,
            34.6437
          ],
          [
            -50.002027,
            34.829318
          ],
          [
            -48.55276,
            35.006266
          ],
          [
            -45.051994,
            35.433693
          ],
          [
            -44.932205,
            35.448318
          ],
          [
            -40.00166,
            36.050314
          ],
          [
            -38.91,
            36.1836
          ],
          [
            -35.95958,
            36.271266
          ],
          [
            -33.976613,
            36.330185
          ],
          [
            -30.001492,
            36.448298
          ],
          [
            -28.1874,
            36.5022
          ],
          [
            -23.891026,
            36.409169
          ],
          [
            -22.486564,
            36.378758
          ],
          [
            -20.001544,
            36.324949
          ],
          [
            -18.3875,
            36.29
          ],
          [
            -15.087759,
            36.201224
          ],
          [
            -12.948729,
            36.143675
          ],
          [
            -12.608538,
            36.134522
          ],
          [
            -9.130793,
            36.040957
          ],
          [
            -8.929005,
            36.035528
          ],
          [
            -8.838176,
            36.033084
          ],
          [
            -8.196204,
            36.015813
          ],
          [
            -7.447269,
            35.995663
          ],
          [
            -5.75,
            35.95
          ],
          [
            -5.354867,
            35.968819
          ],
          [
            -5.269383,
            35.97289
          ],
          [
            -4.7,
            36
          ],
          [
            -3.683043,
            36.156455
          ],
          [
            -3.264225,
            36.220888
          ],
          [
            -2.590675,
            36.324512
          ],
          [
            -2.244793,
            36.377724
          ],
          [
            -1.62439,
            36.473171
          ],
          [
            -0.366667,
            36.666667
          ],
          [
            3.1,
            37.2
          ],
          [
            7.5,
            37.4
          ],
          [
            10.373031,
            37.482087
          ],
          [
            11,
            37.5
          ],
          [
            11.172235,
            37.454891
          ],
          [
            11.827836,
            37.283186
          ],
          [
            12.086301,
            37.215493
          ],
          [
            12.110644,
            37.209117
          ],
          [
            13.263819,
            36.907095
          ],
          [
            15.2,
            36.4
          ],
          [
            16.726588,
            36.086854
          ],
          [
            17.902084,
            35.845726
          ],
          [
            21.407365,
            35.126694
          ],
          [
            23,
            34.8
          ],
          [
            24.926664,
            34.187436
          ],
          [
            25.478721,
            34.011915
          ],
          [
            26.306431,
            33.748752
          ],
          [
            27.927542,
            33.219565
          ],
          [
            28.212434,
            33.115811
          ],
          [
            28.905525,
            32.863395
          ],
          [
            30.408377,
            32.316071
          ],
          [
            32.1,
            31.7
          ],
          [
            32.359877,
            31.336373
          ],
          [
            32.310104,
            31.102922
          ],
          [
            32.382202,
            30.318359
          ],
          [
            32.557983,
            30.213982
          ],
          [
            32.6,
            29.7
          ],
          [
            33.233643,
            28.444544
          ],
          [
            34.5,
            27
          ],
          [
            37,
            23.6
          ],
          [
            37.786499,
            22.210682
          ],
          [
            38.572998,
            20.807472
          ],
          [
            41.000977,
            17.098792
          ],
          [
            42.341309,
            14.509144
          ],
          [
            42.541058,
            13.676089
          ],
          [
            43.3,
            12.7
          ],
          [
            43.746586,
            12.40439
          ],
          [
            45,
            12
          ],
          [
            50.856149,
            12.884027
          ],
          [
            53.61885,
            13.300009
          ],
          [
            55.041504,
            12.747516
          ],
          [
            59.894005,
            11.083455
          ],
          [
            60.825733,
            10.866984
          ],
          [
            62.0601,
            10.5802
          ],
          [
            64.303249,
            10.031585
          ],
          [
            64.698862,
            9.934828
          ],
          [
            64.992809,
            9.862937
          ],
          [
            65.7044,
            9.6889
          ],
          [
            68.858995,
            8.881605
          ],
          [
            69.3291,
            8.7613
          ],
          [
            69.671733,
            8.6701
          ],
          [
            69.999915,
            8.582747
          ],
          [
            70.817426,
            8.365148
          ],
          [
            75.966807,
            6.966807
          ],
          [
            78.019032,
            6.387793
          ],
          [
            80.1,
            5.8
          ],
          [
            81.9,
            5.9
          ],
          [
            85.9479,
            6.1983
          ],
          [
            90,
            6.4664
          ],
          [
            94.326449,
            6.157121
          ],
          [
            98.128129,
            5.811729
          ],
          [
            99.763807,
            4.084523
          ],
          [
            100.6,
            3.2
          ],
          [
            101.316415,
            2.586072
          ],
          [
            102,
            2
          ],
          [
            103.6,
            1.1
          ],
          [
            103.861103,
            1.171415
          ],
          [
            104.145848,
            1.249295
          ],
          [
            104.482294,
            1.341312
          ],
          [
            109.934071,
            7.545272
          ],
          [
            111.913427,
            9.797721
          ],
          [
            115.044525,
            13.360816
          ],
          [
            118.161859,
            16.908251
          ],
          [
            119.038794,
            17.909261
          ],
          [
            120,
            19
          ],
          [
            121.463172,
            21.815409
          ],
          [
            122.118989,
            23.090873
          ],
          [
            123.418194,
            24.572211
          ],
          [
            123.977966,
            24.469651
          ],
          [
            124.588885,
            24.80933
          ],
          [
            125.189209,
            25.025884
          ],
          [
            127.375711,
            25.985071
          ],
          [
            127.836914,
            25.980268
          ],
          [
            132.332341,
            29.491244
          ],
          [
            134.039886,
            30.710287
          ],
          [
            136.326844,
            32.443813
          ],
          [
            138.955078,
            34.395579
          ],
          [
            139.301147,
            34.604954
          ],
          [
            139.550559,
            34.683002
          ],
          [
            139.63623,
            35.016501
          ],
          [
            139.792786,
            35.23889
          ]
        ]
      }
    },
    {
      "type": "Feature",
      "id": "nea_cape",
      "properties": {
        "id": "nea_cape",
        "label": "Sabine Pass to Futtsu, via the Cape of Good Hope",
        "distance_nm": 15824.8
      },
      "geometry": {
        "type": "LineString",
        "coordinates": [
          [
            -93.8885,
            29.7558
          ],
          [
            -93.8363,
            29.6879
          ],
          [
            -93.8045,
            29.5986
          ],
          [
            -93.7265,
            29.5326
          ],
          [
            -93.6681,
            29.4739
          ],
          [
            -93.668124,
            29.453174
          ],
          [
            -93.217182,
            29.253671
          ],
          [
            -92.407265,
            28.895353
          ],
          [
            -92.151777,
            28.782322
          ],
          [
            -91.842882,
            28.645662
          ],
          [
            -91.549269,
            28.515764
          ],
          [
            -91.308884,
            28.409415
          ],
          [
            -90.380776,
            27.998808
          ],
          [
            -89.893027,
            27.783021
          ],
          [
            -89.766422,
            27.727009
          ],
          [
            -88.638654,
            27.22807
          ],
          [
            -88.194005,
            27.029745
          ],
          [
            -87.365118,
            26.617905
          ],
          [
            -86.86025,
            26.367057
          ],
          [
            -86.685611,
            26.280286
          ],
          [
            -85.868843,
            25.874468
          ],
          [
            -84.431568,
            25.160345
          ],
          [
            -82.7,
            24.3
          ],
          [
            -82.065666,
            24.077126
          ],
          [
            -79,
            23
          ],
          [
            -78.082771,
            22.639414
          ],
          [
            -77.165541,
            22.277878
          ],
          [
            -76.182771,
            21.889469
          ],
          [
            -75.2,
            21.5
          ],
          [
            -74.406809,
            21.113541
          ],
          [
            -74.085967,
            21.001536
          ],
          [
            -73.811646,
            20.915266
          ],
          [
            -72,
            20.3
          ],
          [
            -70.62947,
            20.057079
          ],
          [
            -68.9,
            19.75
          ],
          [
            -67.95,
            18.5
          ],
          [
            -67.255752,
            17.883904
          ],
          [
            -66.6,
            17.3
          ],
          [
            -66.274325,
            17.05734
          ],
          [
            -64.288542,
            15.577737
          ],
          [
            -61.586092,
            13.564433
          ],
          [
            -61.281976,
            13.442203
          ],
          [
            -59.945647,
            13.087647
          ],
          [
            -59.133295,
            12.623116
          ],
          [
            -58.451251,
            12.233099
          ],
          [
            -56.9106,
            11.3521
          ],
          [
            -55.547019,
            10.55093
          ],
          [
            -52.9962,
            9.0522
          ],
          [
            -50.90855,
            7.800354
          ],
          [
            -49.1234,
            6.7299
          ],
          [
            -44.76997,
            4.078524
          ],
          [
            -42.878362,
            2.917574
          ],
          [
            -42.4761,
            2.5118
          ],
          [
            -41.712631,
            1.737317
          ],
          [
            -41.320869,
            1.339903
          ],
          [
            -40,
            -2e-05
          ],
          [
            -38.152311,
            -1.565083
          ],
          [
            -34.860393,
            -4.720374
          ],
          [
            -33.8,
            -5.25
          ],
          [
            -31.063081,
            -7.186164
          ],
          [
            -29.999876,
            -7.933805
          ],
          [
            -28.772132,
            -8.796464
          ],
          [
            -27.018677,
            -10.021884
          ],
          [
            -22.806528,
            -12.935362
          ],
          [
            -19.999225,
            -14.844666
          ],
          [
            -16.822275,
            -16.967419
          ],
          [
            -12.088665,
            -20.028905
          ],
          [
            -10.796127,
            -20.843889
          ],
          [
            -9.999624,
            -21.343395
          ],
          [
            -7.024709,
            -23.154038
          ],
          [
            -4.412459,
            -24.677177
          ],
          [
            0.00081,
            -27.123985
          ],
          [
            2.015382,
            -28.169477
          ],
          [
            5.891411,
            -30.076823
          ],
          [
            8.741211,
            -31.368532
          ],
          [
            10.000809,
            -31.926949
          ],
          [
            14.0806,
            -33.5827
          ],
          [
            18,
            -35
          ],
          [
            22,
            -35
          ],
          [
            26,
            -34.5
          ],
          [
            30.517,
            -34.365
          ],
          [
            35.0115,
            -34.0662
          ],
          [
            36.390766,
            -33.923893
          ],
          [
            40.001483,
            -33.531655
          ],
          [
            42.877817,
            -33.128872
          ],
          [
            47.907599,
            -32.27482
          ],
          [
            50.000771,
            -31.837267
          ],
          [
            51.411778,
            -31.534939
          ],
          [
            52.4574,
            -31.3109
          ],
          [
            57.364335,
            -30.049282
          ],
          [
            59.850755,
            -29.331435
          ],
          [
            61.107776,
            -28.953503
          ],
          [
            64.6843,
            -27.7881
          ],
          [
            66.312924,
            -27.197748
          ],
          [
            68.5686,
            -26.3801
          ],
          [
            70.001174,
            -25.809188
          ],
          [
            72.3571,
            -24.8703
          ],
          [
            73.944701,
            -24.181688
          ],
          [
            76.0526,
            -23.2674
          ],
          [
            77.600719,
            -22.543222
          ],
          [
            80.000395,
            -21.409572
          ],
          [
            80.903432,
            -20.957707
          ],
          [
            82.741545,
            -20.037946
          ],
          [
            86.6262,
            -17.9877
          ],
          [
            86.989745,
            -17.784081
          ],
          [
            86.989753,
            -17.784076
          ],
          [
            87.410925,
            -17.54818
          ],
          [
            90.000624,
            -16.09783
          ],
          [
            93.735063,
            -13.883479
          ],
          [
            95.0611,
            -13.0972
          ],
          [
            100,
            -10
          ],
          [
            104,
            -7
          ],
          [
            104.82827,
            -6.592568
          ],
          [
            105.424805,
            -6.298919
          ],
          [
            105.754542,
            -5.979226
          ],
          [
            105.864207,
            -5.893542
          ],
          [
            106.459579,
            -5.312501
          ],
          [
            106.8,
            -5.2
          ],
          [
            107.29248,
            -3.590178
          ],
          [
            107.251282,
            -2.498597
          ],
          [
            107.656412,
            -1.540824
          ],
          [
            109.077742,
            2.198945
          ],
          [
            109.8,
            3.7
          ],
          [
            109.934071,
            7.545272
          ],
          [
            111.913427,
            9.797721
          ],
          [
            115.044525,
            13.360816
          ],
          [
            118.161859,
            16.908251
          ],
          [
            119.038794,
            17.909261
          ],
          [
            120,
            19
          ],
          [
            121.463172,
            21.815409
          ],
          [
            122.118989,
            23.090873
          ],
          [
            123.418194,
            24.572211
          ],
          [
            123.977966,
            24.469651
          ],
          [
            124.588885,
            24.80933
          ],
          [
            125.189209,
            25.025884
          ],
          [
            127.375711,
            25.985071
          ],
          [
            127.836914,
            25.980268
          ],
          [
            132.332341,
            29.491244
          ],
          [
            134.039886,
            30.710287
          ],
          [
            136.326844,
            32.443813
          ],
          [
            138.955078,
            34.395579
          ],
          [
            139.301147,
            34.604954
          ],
          [
            139.550559,
            34.683002
          ],
          [
            139.63623,
            35.016501
          ],
          [
            139.792786,
            35.23889
          ]
        ]
      }
    }
  ]
}
